[{"OBJECT_NAME":"SL-8 R/B","OBJECT_ID":"1979-089B","EPOCH":"2026-03-21T09:32:54.936384","MEAN_MOTION":14.42356977,"ECCENTRICITY":0.00169757,"INCLINATION":74.0674,"RA_OF_ASC_NODE":69.3678,"ARG_OF_PERICENTER":240.7215,"MEAN_ANOMALY":119.2245,"EPHEMERIS_TYPE":0,"CLASSIFICATION_TYPE":"U","NORAD_CAT_ID":11574,"ELEMENT_SET_NO":999,"REV_AT_EPOCH":43779,"BSTAR":4.9517478e-5,"MEAN_MOTION_DOT":1.37e-6,"MEAN_MOTION_DDOT":0},{"OBJECT_NAME":"SL-14 R/B","OBJECT_ID":"1980-005B","EPOCH":"2026-03-21T14:33:46.910880","MEAN_MOTION":14.90943335,"ECCENTRICITY":0.00170127,"INCLINATION":82.5122,"RA_OF_ASC_NODE":295.9304,"ARG_OF_PERICENTER":120.8815,"MEAN_ANOMALY":239.408,"EPHEMERIS_TYPE":0,"CLASSIFICATION_TYPE":"U","NORAD_CAT_ID":11672,"ELEMENT_SET_NO":999,"REV_AT_EPOCH":47826,"BSTAR":5.1101808e-5,"MEAN_MOTION_DOT":5.31e-6,"MEAN_MOTION_DDOT":0},{"OBJECT_NAME":"SL-8 R/B","OBJECT_ID":"1981-003B","EPOCH":"2026-03-21T14:07:26.753376","MEAN_MOTION":15.11462275,"ECCENTRICITY":0.02613667,"INCLINATION":82.9349,"RA_OF_ASC_NODE":279.0176,"ARG_OF_PERICENTER":137.1669,"MEAN_ANOMALY":225.0258,"EPHEMERIS_TYPE":0,"CLASSIFICATION_TYPE":"U","NORAD_CAT_ID":12139,"ELEMENT_SET_NO":999,"REV_AT_EPOCH":31647,"BSTAR":0.00068516359,"MEAN_MOTION_DOT":0.00027081,"MEAN_MOTION_DDOT":0},{"OBJECT_NAME":"SL-3 R/B","OBJECT_ID":"1981-046B","EPOCH":"2026-03-21T14:14:45.522816","MEAN_MOTION":15.42273119,"ECCENTRICITY":0.00186296,"INCLINATION":81.2281,"RA_OF_ASC_NODE":275.4446,"ARG_OF_PERICENTER":340.6181,"MEAN_ANOMALY":19.4351,"EPHEMERIS_TYPE":0,"CLASSIFICATION_TYPE":"U","NORAD_CAT_ID":12465,"ELEMENT_SET_NO":999,"REV_AT_EPOCH":44026,"BSTAR":0.00034393005,"MEAN_MOTION_DOT":0.00014923,"MEAN_MOTION_DDOT":0},{"OBJECT_NAME":"SL-3 R/B","OBJECT_ID":"1981-103B","EPOCH":"2026-03-21T14:38:58.348320","MEAN_MOTION":15.21511763,"ECCENTRICITY":0.00124364,"INCLINATION":81.1608,"RA_OF_ASC_NODE":199.4484,"ARG_OF_PERICENTER":243.3173,"MEAN_ANOMALY":116.6786,"EPHEMERIS_TYPE":0,"CLASSIFICATION_TYPE":"U","NORAD_CAT_ID":12904,"ELEMENT_SET_NO":999,"REV_AT_EPOCH":97504,"BSTAR":0.00031686819,"MEAN_MOTION_DOT":7.17e-5,"MEAN_MOTION_DDOT":0},{"OBJECT_NAME":"SL-3 R/B","OBJECT_ID":"1982-013B","EPOCH":"2026-03-21T14:43:35.657760","MEAN_MOTION":15.22121542,"ECCENTRICITY":0.00232902,"INCLINATION":81.1745,"RA_OF_ASC_NODE":146.7956,"ARG_OF_PERICENTER":137.916,"MEAN_ANOMALY":222.3866,"EPHEMERIS_TYPE":0,"CLASSIFICATION_TYPE":"U","NORAD_CAT_ID":13068,"ELEMENT_SET_NO":999,"REV_AT_EPOCH":40616,"BSTAR":0.00020749939,"MEAN_MOTION_DOT":4.815e-5,"MEAN_MOTION_DDOT":0},{"OBJECT_NAME":"SL-3 R/B","OBJECT_ID":"1982-039B","EPOCH":"2026-03-21T14:00:29.345472","MEAN_MOTION":15.10144441,"ECCENTRICITY":0.00290851,"INCLINATION":81.1579,"RA_OF_ASC_NODE":202.2481,"ARG_OF_PERICENTER":285.3562,"MEAN_ANOMALY":74.445,"EPHEMERIS_TYPE":0,"CLASSIFICATION_TYPE":"U","NORAD_CAT_ID":13154,"ELEMENT_SET_NO":999,"REV_AT_EPOCH":38343,"BSTAR":0.00016917717,"MEAN_MOTION_DOT":2.809e-5,"MEAN_MOTION_DDOT":0},{"OBJECT_NAME":"SL-3 R/B","OBJECT_ID":"1982-079B","EPOCH":"2026-03-21T13:03:19.645632","MEAN_MOTION":15.2495798,"ECCENTRICITY":0.00254814,"INCLINATION":81.149,"RA_OF_ASC_NODE":179.0812,"ARG_OF_PERICENTER":125.6431,"MEAN_ANOMALY":234.7181,"EPHEMERIS_TYPE":0,"CLASSIFICATION_TYPE":"U","NORAD_CAT_ID":13403,"ELEMENT_SET_NO":999,"REV_AT_EPOCH":37950,"BSTAR":0.00033213767,"MEAN_MOTION_DOT":8.38e-5,"MEAN_MOTION_DDOT":0},{"OBJECT_NAME":"SL-14 R/B","OBJECT_ID":"1982-092B","EPOCH":"2026-03-21T13:48:38.109312","MEAN_MOTION":14.86676931,"ECCENTRICITY":0.00187721,"INCLINATION":82.5672,"RA_OF_ASC_NODE":130.2816,"ARG_OF_PERICENTER":261.0209,"MEAN_ANOMALY":260.3175,"EPHEMERIS_TYPE":0,"CLASSIFICATION_TYPE":"U","NORAD_CAT_ID":13553,"ELEMENT_SET_NO":999,"REV_AT_EPOCH":33069,"BSTAR":4.6435529e-5,"MEAN_MOTION_DOT":4.38e-6,"MEAN_MOTION_DDOT":0},{"OBJECT_NAME":"SL-3 R/B","OBJECT_ID":"1983-010B","EPOCH":"2026-03-21T11:19:10.661088","MEAN_MOTION":15.46744086,"ECCENTRICITY":0.00168223,"INCLINATION":81.1058,"RA_OF_ASC_NODE":347.8008,"ARG_OF_PERICENTER":11.8751,"MEAN_ANOMALY":348.2887,"EPHEMERIS_TYPE":0,"CLASSIFICATION_TYPE":"U","NORAD_CAT_ID":13819,"ELEMENT_SET_NO":999,"REV_AT_EPOCH":35976,"BSTAR":0.00042908463,"MEAN_MOTION_DOT":0.00021644,"MEAN_MOTION_DDOT":0},{"OBJECT_NAME":"SL-3 R/B","OBJECT_ID":"1983-075B","EPOCH":"2026-03-21T14:08:14.478144","MEAN_MOTION":15.38683742,"ECCENTRICITY":0.00214135,"INCLINATION":97.614,"RA_OF_ASC_NODE":85.6191,"ARG_OF_PERICENTER":181.7426,"MEAN_ANOMALY":178.3748,"EPHEMERIS_TYPE":0,"CLASSIFICATION_TYPE":"U","NORAD_CAT_ID":14208,"ELEMENT_SET_NO":999,"REV_AT_EPOCH":33198,"BSTAR":0.00038228585,"MEAN_MOTION_DOT":0.00014647,"MEAN_MOTION_DDOT":0},{"OBJECT_NAME":"COSMOS 1536","OBJECT_ID":"1984-013A","EPOCH":"2026-03-21T12:56:31.781472","MEAN_MOTION":15.23973546,"ECCENTRICITY":0.00126955,"INCLINATION":82.5413,"RA_OF_ASC_NODE":96.0666,"ARG_OF_PERICENTER":236.1827,"MEAN_ANOMALY":123.8202,"EPHEMERIS_TYPE":0,"CLASSIFICATION_TYPE":"U","NORAD_CAT_ID":14699,"ELEMENT_SET_NO":999,"REV_AT_EPOCH":27442,"BSTAR":0.00032108158,"MEAN_MOTION_DOT":7.818e-5,"MEAN_MOTION_DDOT":0},{"OBJECT_NAME":"SL-14 R/B","OBJECT_ID":"1984-027B","EPOCH":"2026-03-21T11:27:04.972032","MEAN_MOTION":14.85988517,"ECCENTRICITY":0.00166059,"INCLINATION":82.5401,"RA_OF_ASC_NODE":233.9556,"ARG_OF_PERICENTER":296.6556,"MEAN_ANOMALY":63.2959,"EPHEMERIS_TYPE":0,"CLASSIFICATION_TYPE":"U","NORAD_CAT_ID":14820,"ELEMENT_SET_NO":999,"REV_AT_EPOCH":24938,"BSTAR":5.6519364e-5,"MEAN_MOTION_DOT":5.19e-6,"MEAN_MOTION_DDOT":0},{"OBJECT_NAME":"SL-8 R/B","OBJECT_ID":"1985-006B","EPOCH":"2026-03-21T13:21:58.789152","MEAN_MOTION":14.37792024,"ECCENTRICITY":0.00179593,"INCLINATION":74.0438,"RA_OF_ASC_NODE":239.3093,"ARG_OF_PERICENTER":153.8661,"MEAN_ANOMALY":271.8865,"EPHEMERIS_TYPE":0,"CLASSIFICATION_TYPE":"U","NORAD_CAT_ID":15483,"ELEMENT_SET_NO":999,"REV_AT_EPOCH":15573,"BSTAR":0.00012781993,"MEAN_MOTION_DOT":3.59e-6,"MEAN_MOTION_DDOT":0},{"OBJECT_NAME":"SL-12 R/B(2)","OBJECT_ID":"1985-042D","EPOCH":"2026-03-21T09:07:52.987296","MEAN_MOTION":14.21985462,"ECCENTRICITY":0.00329045,"INCLINATION":71.1071,"RA_OF_ASC_NODE":63.0269,"ARG_OF_PERICENTER":108.7951,"MEAN_ANOMALY":357.9679,"EPHEMERIS_TYPE":0,"CLASSIFICATION_TYPE":"U","NORAD_CAT_ID":15772,"ELEMENT_SET_NO":999,"REV_AT_EPOCH":11605,"BSTAR":4.9541584e-5,"MEAN_MOTION_DOT":6.3e-7,"MEAN_MOTION_DDOT":0},{"OBJECT_NAME":"SL-14 R/B","OBJECT_ID":"1985-069B","EPOCH":"2026-03-21T12:36:57.084480","MEAN_MOTION":14.86445859,"ECCENTRICITY":0.00195266,"INCLINATION":82.5301,"RA_OF_ASC_NODE":13.8058,"ARG_OF_PERICENTER":149.0039,"MEAN_ANOMALY":211.2335,"EPHEMERIS_TYPE":0,"CLASSIFICATION_TYPE":"U","NORAD_CAT_ID":15945,"ELEMENT_SET_NO":999,"REV_AT_EPOCH":17459,"BSTAR":5.4688738e-5,"MEAN_MOTION_DOT":5.09e-6,"MEAN_MOTION_DDOT":0},{"OBJECT_NAME":"SL-16 R/B","OBJECT_ID":"1985-097B","EPOCH":"2026-03-21T13:51:53.825184","MEAN_MOTION":14.16601231,"ECCENTRICITY":0.00095797,"INCLINATION":71.0013,"RA_OF_ASC_NODE":115.5264,"ARG_OF_PERICENTER":245.5268,"MEAN_ANOMALY":229.69,"EPHEMERIS_TYPE":0,"CLASSIFICATION_TYPE":"U","NORAD_CAT_ID":16182,"ELEMENT_SET_NO":999,"REV_AT_EPOCH":8891,"BSTAR":0.00015824775,"MEAN_MOTION_DOT":2.68e-6,"MEAN_MOTION_DDOT":0}]
